GLOBALSTAR M068         
1 32266U 07048D   26015.02220367 -.00000103  00000+0  49949-5 0  9998
2 32266  51.9904  16.5038 0000834 235.5030 141.4484 12.62837694844320
GLOBALSTAR M079         
1 37188U 10054A   26015.54109362 -.00000085  00000+0  10477-3 0  9996
2 37188  52.0012 213.3481 0001202  73.4440 314.4956 12.62269958703279
GLOBALSTAR M074         
1 37189U 10054B   26015.04514313 -.00000072  00000+0  17712-3 0  9993
2 37189  51.9989 214.1480 0001197  89.1759  83.3471 12.62265504703816
GLOBALSTAR M076         
1 37190U 10054C   26015.51270703 -.00000063  00000+0  23027-3 0  9995
2 37190  52.0002 212.9153 0001319  84.0842 293.4750 12.62269555703591
GLOBALSTAR M077         
1 37191U 10054D   26015.51175612 -.00000045  00000+0  60452-3 0  9992
2 37191  51.9943 207.0754 0001729  80.6491 303.9655 11.68177675703309
GLOBALSTAR M075         
1 37192U 10054E   26015.07913798 -.00000070  00000+0  18713-3 0  9990
2 37192  51.9937 256.3746 0000854  71.1645  76.4811 12.62263569702606
GLOBALSTAR M073         
1 37193U 10054F   26015.36704153 -.00000103  00000+0  35912-5 0  9995
2 37193  52.0042 169.4788 0001204  90.7573 283.9379 12.62269005704633
GLOBALSTAR M083         
1 37739U 11033A   26015.30494221 -.00000115  00000+0 -61081-4 0  9994
2 37739  51.9854 118.1056 0000862 100.1206 294.0938 12.62266510673643
GLOBALSTAR M088         
1 37740U 11033B   26015.04126044 -.00000094  00000+0  52243-4 0  9997
2 37740  52.0236  24.9646 0000227 115.5728 279.4312 12.62271554669152
GLOBALSTAR M091         
1 37741U 11033C   26015.31700957 -.00000095  00000+0  49394-4 0  9993
2 37741  52.0025 347.3191 0000336  37.7817 109.9336 12.62268615669978
GLOBALSTAR M085         
1 37742U 11033D   26015.14325449 -.00000084  00000+0  10844-3 0  9999
2 37742  52.0144 299.0075 0000720  39.3651  98.9474 12.62268101670462
GLOBALSTAR M081         
1 37743U 11033E   26014.22114887 -.00000092  00000+0  64041-4 0  9998
2 37743  51.9976 304.4229 0000789  52.4090  94.8160 12.62271749670496
GLOBALSTAR M089         
1 37744U 11033F   26015.05156185 -.00000075  00000+0  16135-3 0  9999
2 37744  51.9920 256.0845 0001057  86.2101  55.9808 12.62263531671442
GLOBALSTAR M084         
1 38040U 11080A   26015.35955125 -.00000125  00000+0 -11737-3 0  9995
2 38040  52.0004 122.5446 0001090 119.2076 282.5836 12.62267065649468
GLOBALSTAR M080         
1 38041U 11080B   26015.49811556 -.00000121  00000+0 -94316-4 0  9991
2 38041  52.0056 123.7884 0000392 118.3826 323.1161 12.62265455649602
GLOBALSTAR M082         
1 38042U 11080C   26015.35472422 -.00000098  00000+0  34490-4 0  9991
2 38042  52.0083  79.7101 0000252 127.2855 312.0556 12.62266649650299
GLOBALSTAR M092         
1 38043U 11080D   26015.39484066 -.00000095  00000+0  49213-4 0  9999
2 38043  52.0063 169.9749 0001003  99.8943 281.7115 12.62269435648752
GLOBALSTAR M090         
1 38044U 11080E   26015.38197691 -.00000097  00000+0  35094-4 0  9998
2 38044  52.0129  73.5343 0000477 104.1502 337.8794 12.62265804650419
GLOBALSTAR M086         
1 38045U 11080F   26015.49081895 -.00000097  00000+0  40627-4 0  9997
2 38045  51.9907  73.3815 0001508  84.3779  24.2345 12.62282070650373
GLOBALSTAR M097         
1 39072U 13005A   26015.25789019 -.00000101  00000+0  14119-4 0  9997
2 39072  52.0071 348.8654 0000517  55.5882 304.5034 12.62268122597598
GLOBALSTAR M093         
1 39073U 13005B   26015.07335410 -.00000095  00000+0  46275-4 0  9990
2 39073  52.0130 342.7169 0000716  37.8048 322.2869 12.62271622597522
GLOBALSTAR M094         
1 39074U 13005C   26014.99414835 -.00000071  00000+0  18093-3 0  9990
2 39074  51.9947 257.2301 0001064  58.3603 301.7367 12.62266027599123
GLOBALSTAR M096         
1 39075U 13005D   26014.84874903 -.00000095  00000+0  46944-4 0  9994
2 39075  52.0092 306.3502 0000742  39.7449 320.3472 12.62269946598024
GLOBALSTAR M078         
1 39076U 13005E   26015.37695028 -.00000067  00000+0  20462-3 0  9998
2 39076  51.9887  28.9635 0000547 295.5737  64.5073 12.62273767596718
GLOBALSTAR M095         
1 39077U 13005F   26015.32415691 -.00000094  00000+0  57115-4 0  9996
2 39077  52.0097  26.5115 0000323   9.0729 351.0144 12.62267794596561
GLOBALSTAR M087         
1 52888U 22064A   26014.38710325 -.00000093  00000+0  58815-4 0  9990
2 52888  51.9973 170.6894 0000981  85.2519 274.8460 12.62262393171714
